[
    {
        "Altitude(m)": 557914.1207482168,
        "Argument of Periapsis(deg)": 0.006622991110713501,
        "Eccentricity": 0.0,
        "Inclination(deg)": 53.0,
        "Latitude(deg)": 44.449838022423755,
        "Longitude(deg)": -88.45082664759101,
        "Mean Anomaly(deg)": -298.9993071324224,
        "RAAN(deg)": 324.990143368528,
        "Satellite Name": "Starlink Shell 1 1433",
        "Satellite Number": 1433,
        "Semi-Major Axis(m)": 6931778.249405717,
        "Time(s)": 190
    },
    {
        "Altitude(m)": 557990.0113575442,
        "Argument of Periapsis(deg)": 0.0069715695902247375,
        "Eccentricity": 0.0,
        "Inclination(deg)": 53.0,
        "Latitude(deg)": 44.787421189132765,
        "Longitude(deg)": -87.75125468433022,
        "Mean Anomaly(deg)": -298.3724759288657,
        "RAAN(deg)": 324.9896245984505,
        "Satellite Name": "Starlink Shell 1 1433",
        "Satellite Number": 1433,
        "Semi-Major Axis(m)": 6931778.249405717,
        "Time(s)": 200
    },
    {
        "Altitude(m)": 558065.0000708501,
        "Argument of Periapsis(deg)": 0.007320148069735974,
        "Eccentricity": 0.0,
        "Inclination(deg)": 53.0,
        "Latitude(deg)": 45.1201235709939,
        "Longitude(deg)": -87.04306709647383,
        "Mean Anomaly(deg)": -297.745644725309,
        "RAAN(deg)": 324.98910582837306,
        "Satellite Name": "Starlink Shell 1 1433",
        "Satellite Number": 1433,
        "Semi-Major Axis(m)": 6931778.249405717,
        "Time(s)": 210
    },
    {
        "Altitude(m)": 558139.0400218391,
        "Argument of Periapsis(deg)": 0.007668726549247212,
        "Eccentricity": 0.0,
        "Inclination(deg)": 53.0,
        "Latitude(deg)": 45.44783237530012,
        "Longitude(deg)": -86.32619172242796,
        "Mean Anomaly(deg)": -297.11881352175226,
        "RAAN(deg)": 324.9885870582956,
        "Satellite Name": "Starlink Shell 1 1433",
        "Satellite Number": 1433,
        "Semi-Major Axis(m)": 6931778.249405717,
        "Time(s)": 220
    },
    {
        "Altitude(m)": 558212.0850332052,
        "Argument of Periapsis(deg)": 0.00801730502875845,
        "Eccentricity": 0.0,
        "Inclination(deg)": 53.0,
        "Latitude(deg)": 45.77043325764988,
        "Longitude(deg)": -85.60056269486421,
        "Mean Anomaly(deg)": -296.49198231819554,
        "RAAN(deg)": 324.98806828821813,
        "Satellite Name": "Starlink Shell 1 1433",
        "Satellite Number": 1433,
        "Semi-Major Axis(m)": 6931778.249405717,
        "Time(s)": 230
    },
    {
        "Altitude(m)": 558284.0896396515,
        "Argument of Periapsis(deg)": 0.008365883508269684,
        "Eccentricity": 0.0,
        "Inclination(deg)": 53.0,
        "Latitude(deg)": 46.087810392381996,
        "Longitude(deg)": -84.86612043491675,
        "Mean Anomaly(deg)": -295.8651511146389,
        "RAAN(deg)": 324.9875495181406,
        "Satellite Name": "Starlink Shell 1 1433",
        "Satellite Number": 1433,
        "Semi-Major Axis(m)": 6931778.249405717,
        "Time(s)": 240
    },
    {
        "Altitude(m)": 558355.0091105582,
        "Argument of Periapsis(deg)": 0.008714461987780921,
        "Eccentricity": 0.0,
        "Inclination(deg)": 53.0,
        "Latitude(deg)": 46.39984655187387,
        "Longitude(deg)": -84.12281317356921,
        "Mean Anomaly(deg)": -295.2383199110821,
        "RAAN(deg)": 324.98703074806315,
        "Satellite Name": "Starlink Shell 1 1433",
        "Satellite Number": 1433,
        "Semi-Major Axis(m)": 6931778.249405717,
        "Time(s)": 250
    },
    {
        "Altitude(m)": 558424.7994721938,
        "Argument of Periapsis(deg)": 0.009063040467292158,
        "Eccentricity": 0.0,
        "Inclination(deg)": 53.0,
        "Latitude(deg)": 46.70642319509894,
        "Longitude(deg)": -83.37059697305195,
        "Mean Anomaly(deg)": -294.6114887075254,
        "RAAN(deg)": 324.98651197798574,
        "Satellite Name": "Starlink Shell 1 1433",
        "Satellite Number": 1433,
        "Semi-Major Axis(m)": 6931778.249405717,
        "Time(s)": 260
    },
    {
        "Altitude(m)": 558493.4175296216,
        "Argument of Periapsis(deg)": 0.009411618946803396,
        "Eccentricity": 0.0,
        "Inclination(deg)": 53.0,
        "Latitude(deg)": 47.00742056582527,
        "Longitude(deg)": -82.60943575941874,
        "Mean Anomaly(deg)": -293.9846575039687,
        "RAAN(deg)": 324.9859932079082,
        "Satellite Name": "Starlink Shell 1 1433",
        "Satellite Number": 1433,
        "Semi-Major Axis(m)": 6931778.249405717,
        "Time(s)": 270
    },
    {
        "Altitude(m)": 558560.8208881075,
        "Argument of Periapsis(deg)": 0.009760197426314633,
        "Eccentricity": 0.0,
        "Inclination(deg)": 53.0,
        "Latitude(deg)": 47.30271780080757,
        "Longitude(deg)": -81.83930287721722,
        "Mean Anomaly(deg)": -293.35782630041194,
        "RAAN(deg)": 324.9854744378307,
        "Satellite Name": "Starlink Shell 1 1433",
        "Satellite Number": 1433,
        "Semi-Major Axis(m)": 6931778.249405717,
        "Time(s)": 280
    },
    {
        "Altitude(m)": 558626.9679741841,
        "Argument of Periapsis(deg)": 0.01010877590582587,
        "Eccentricity": 0.0,
        "Inclination(deg)": 53.0,
        "Latitude(deg)": 47.59219304829894,
        "Longitude(deg)": -81.06018113827126,
        "Mean Anomaly(deg)": -292.7309950968553,
        "RAAN(deg)": 324.9849556677533,
        "Satellite Name": "Starlink Shell 1 1433",
        "Satellite Number": 1433,
        "Semi-Major Axis(m)": 6931778.249405717,
        "Time(s)": 290
    },
    {
        "Altitude(m)": 558691.8180562308,
        "Argument of Periapsis(deg)": 0.010457354385337106,
        "Eccentricity": 0.0,
        "Inclination(deg)": 53.0,
        "Latitude(deg)": 47.875723597169724,
        "Longitude(deg)": -80.27206287492345,
        "Mean Anomaly(deg)": -292.10416389329856,
        "RAAN(deg)": 324.98443689767583,
        "Satellite Name": "Starlink Shell 1 1433",
        "Satellite Number": 1433,
        "Semi-Major Axis(m)": 6931778.249405717,
        "Time(s)": 300
    },
    {
        "Altitude(m)": 558755.331264645,
        "Argument of Periapsis(deg)": 0.010805932864848343,
        "Eccentricity": 0.0,
        "Inclination(deg)": 53.0,
        "Latitude(deg)": 48.153186016876745,
        "Longitude(deg)": -79.47495150779105,
        "Mean Anomaly(deg)": -291.47733268974184,
        "RAAN(deg)": 324.9839181275983,
        "Satellite Name": "Starlink Shell 1 1433",
        "Satellite Number": 1433,
        "Semi-Major Axis(m)": 6931778.249405717,
        "Time(s)": 310
    },
    {
        "Altitude(m)": 558817.4686115817,
        "Argument of Periapsis(deg)": 0.01115451134435958,
        "Eccentricity": 0.0,
        "Inclination(deg)": 53.0,
        "Latitude(deg)": 48.42445630847894,
        "Longitude(deg)": -78.66886159917829,
        "Mean Anomaly(deg)": -290.8505014861851,
        "RAAN(deg)": 324.98339935752085,
        "Satellite Name": "Starlink Shell 1 1433",
        "Satellite Number": 1433,
        "Semi-Major Axis(m)": 6931778.249405717,
        "Time(s)": 320
    },
    {
        "Altitude(m)": 558878.1920102158,
        "Argument of Periapsis(deg)": 0.011503089823870818,
        "Eccentricity": 0.0,
        "Inclination(deg)": 53.0,
        "Latitude(deg)": 48.68941006683432,
        "Longitude(deg)": -77.85381890160818,
        "Mean Anomaly(deg)": -290.2236702826284,
        "RAAN(deg)": 324.9828805874434,
        "Satellite Name": "Starlink Shell 1 1433",
        "Satellite Number": 1433,
        "Semi-Major Axis(m)": 6931778.249405717,
        "Time(s)": 330
    },
    {
        "Altitude(m)": 558937.4642935375,
        "Argument of Periapsis(deg)": 0.011851668303382053,
        "Eccentricity": 0.0,
        "Inclination(deg)": 53.0,
        "Latitude(deg)": 48.947922654050416,
        "Longitude(deg)": -77.0298619106359,
        "Mean Anomaly(deg)": -289.5968390790717,
        "RAAN(deg)": 324.9823618173659,
        "Satellite Name": "Starlink Shell 1 1433",
        "Satellite Number": 1433,
        "Semi-Major Axis(m)": 6931778.249405717,
        "Time(s)": 340
    },
    {
        "Altitude(m)": 558995.2492327134,
        "Argument of Periapsis(deg)": 0.012200246782893292,
        "Eccentricity": 0.0,
        "Inclination(deg)": 53.0,
        "Latitude(deg)": 49.19986938418775,
        "Longitude(deg)": -76.19704189221837,
        "Mean Anomaly(deg)": -288.9700078755149,
        "RAAN(deg)": 324.98184304728846,
        "Satellite Name": "Starlink Shell 1 1433",
        "Satellite Number": 1433,
        "Semi-Major Axis(m)": 6931778.249405717,
        "Time(s)": 350
    },
    {
        "Altitude(m)": 559051.5115549449,
        "Argument of Periapsis(deg)": 0.012548825262404526,
        "Eccentricity": 0.0,
        "Inclination(deg)": 53.0,
        "Latitude(deg)": 49.44512571913461,
        "Longitude(deg)": -75.35542289325292,
        "Mean Anomaly(deg)": -288.34317667195825,
        "RAAN(deg)": 324.98132427721094,
        "Satellite Name": "Starlink Shell 1 1433",
        "Satellite Number": 1433,
        "Semi-Major Axis(m)": 6931778.249405717,
        "Time(s)": 360
    },
    {
        "Altitude(m)": 559106.2169608382,
        "Argument of Periapsis(deg)": 0.012897403741915765,
        "Eccentricity": 0.0,
        "Inclination(deg)": 53.0,
        "Latitude(deg)": 49.68356747548655,
        "Longitude(deg)": -74.5050832436461,
        "Mean Anomaly(deg)": -287.7163454684016,
        "RAAN(deg)": 324.9808055071335,
        "Satellite Name": "Starlink Shell 1 1433",
        "Satellite Number": 1433,
        "Semi-Major Axis(m)": 6931778.249405717,
        "Time(s)": 370
    }
]